NORAD_CAT_ID,OBJECT_NAME,OBJECT_TYPE,EPOCH,MEAN_MOTION,ECCENTRICITY,INCLINATION,RA_OF_ASC_NODE,ARG_OF_PERICENTER,MEAN_ANOMALY,BSTAR,MEAN_MOTION_DOT,MEAN_MOTION_DDOT,TLE_LINE0,TLE_LINE1,TLE_LINE2,SEMIMAJOR_AXIS,PERIOD,APOGEE,PERIGEE,DECAYED
51464.0,STARLINK-3189,PAYLOAD,2023-11-19 15:25:04,15.08842259,0.0001101,53.218,94.7293,83.2529,276.8588,0.00010245,1.343e-05,0.0,0 STARLINK-3189,1 51464U 22010J   23323.64241133  .00001343  00000-0  10245-3 0  9998,2 51464  53.2180  94.7293 0001101  83.2529 276.8588 15.08842259100354,6917.873,95.437,540.5,538.977,0.0
51464.0,STARLINK-3189,PAYLOAD,2023-11-19 18:35:50,15.08845338,0.0001378,53.2168,94.1329,92.2674,267.8476,9.0069e-05,1.146e-05,0.0,0 STARLINK-3189,1 51464U 22010J   23323.77488921  .00001146  00000-0  90069-4 0  9994,2 51464  53.2168  94.1329 0001378  92.2674 267.8476 15.08845338100370,6917.864,95.437,540.682,538.776,0.0
51464.0,STARLINK-3189,PAYLOAD,2023-11-20 13:40:28,15.08841138,0.00014,53.2167,90.5642,90.995,269.1203,2.0691e-05,4.1e-07,0.0,0 STARLINK-3189,1 51464U 22010J   23324.56977339  .00000041  00000-0  20691-4 0  9995,2 51464  53.2167  90.5642 0001400  90.9950 269.1203 15.08841138100495,6917.877,95.437,540.71,538.773,0.0
51464.0,STARLINK-3189,PAYLOAD,2023-11-20 15:15:51,15.08842129,0.0001326,53.2176,90.2688,90.8275,269.287,5.1692e-05,5.35e-06,0.0,0 STARLINK-3189,1 51464U 22010J   23324.63601197  .00000535  00000-0  51692-4 0  9992,2 51464  53.2176  90.2688 0001326  90.8275 269.2870 15.08842129100456,6917.874,95.437,540.656,538.822,0.0
51464.0,STARLINK-3189,PAYLOAD,2023-11-21 13:31:15,15.08841776,0.0001395,53.2181,86.1032,93.7483,266.3669,2.8551e-05,1.67e-06,0.0,0 STARLINK-3189,1 51464U 22010J   23325.56337330  .00000167  00000-0  28551-4 0  9999,2 51464  53.2181  86.1032 0001395  93.7483 266.3669 15.08841776100640,6917.875,95.437,540.705,538.775,0.0
51464.0,STARLINK-3189,PAYLOAD,2023-11-21 15:06:38,15.08842355,0.0001381,53.2183,85.8096,94.792,265.323,2.7353e-05,1.47e-06,0.0,0 STARLINK-3189,1 51464U 22010J   23325.62961318  .00000147  00000-0  27353-4 0  9992,2 51464  53.2183  85.8096 0001381  94.7920 265.3230 15.08842355100658,6917.873,95.437,540.694,538.783,0.0
51464.0,STARLINK-3189,PAYLOAD,2023-11-22 11:46:39,15.08842724,0.0001193,53.2184,81.9418,85.9778,274.1351,0.00011495,1.542e-05,0.0,0 STARLINK-3189,1 51464U 22010J   23326.49072981  .00001542  00000-0  11495-3 0  9996,2 51464  53.2184  81.9418 0001193  85.9778 274.1351 15.08842724100739,6917.872,95.437,540.562,538.912,0.0
51464.0,STARLINK-3189,PAYLOAD,2023-11-22 13:22:02,15.08846201,0.0001489,53.2187,81.6469,91.5801,268.5361,0.00012845,1.757e-05,0.0,0 STARLINK-3189,1 51464U 22010J   23326.55696780  .00001757  00000-0  12845-3 0  9990,2 51464  53.2187  81.6469 0001489  91.5801 268.5361 15.08846201100791,6917.861,95.437,540.757,538.696,0.0
51464.0,STARLINK-3189,PAYLOAD,2023-11-22 14:57:24,15.08850273,0.000152,53.2192,81.3501,97.633,262.4835,0.00016315,2.31e-05,0.0,0 STARLINK-3189,1 51464U 22010J   23326.62320414  .00002310  00000-0  16315-3 0  9998,2 51464  53.2192  81.3501 0001520  97.6330 262.4835 15.08850273100750,6917.849,95.437,540.766,538.662,0.0
51464.0,STARLINK-3189,PAYLOAD,2023-11-23 11:37:27,15.08828555,0.000137,53.2192,77.4822,109.5752,250.5388,-3.6179e-05,-8.63e-06,0.0,0 STARLINK-3189,1 51464U 22010J   23327.48434706 -.00000863  00000-0 -36179-4 0  9997,2 51464  53.2192  77.4822 0001370 109.5752 250.5388 15.08828555100889,6917.915,95.438,540.728,538.833,0.0
51464.0,STARLINK-3189,PAYLOAD,2023-11-23 13:12:50,15.08826188,0.0002446,53.218,77.1841,146.4367,213.678,-0.0001828,-3.195e-05,0.0,0 STARLINK-3189,1 51464U 22010J   23327.55058010 -.00003195  00000-0 -18280-3 0  9998,2 51464  53.2180  77.1841 0002446 146.4367 213.6780 15.08826188100944,6917.923,95.438,541.48,538.095,0.0
51464.0,STARLINK-3189,PAYLOAD,2023-11-23 16:23:38,15.08813431,0.0001412,53.219,76.5896,99.3492,260.766,-0.00016394,-2.894e-05,0.0,0 STARLINK-3189,1 51464U 22010J   23327.68308179 -.00002894  00000-0 -16394-3 0  9995,2 51464  53.2190  76.5896 0001412  99.3492 260.7660 15.08813431100919,6917.962,95.439,540.803,538.85,0.0
51464.0,STARLINK-3189,PAYLOAD,2023-11-24 11:28:15,15.08835323,0.0001305,53.2192,73.0242,87.5204,272.5938,-0.00010112,-1.897e-05,0.0,0 STARLINK-3189,1 51464U 22010J   23328.47795323 -.00001897  00000-0 -10112-3 0  9998,2 51464  53.2192  73.0242 0001305  87.5204 272.5938 15.08835323101036,6917.895,95.438,540.662,538.857,0.0
51464.0,STARLINK-3189,PAYLOAD,2023-11-24 13:03:38,15.08829634,0.0001892,53.218,72.7275,64.4087,295.71,-0.00011015,-2.04e-05,0.0,0 STARLINK-3189,1 51464U 22010J   23328.54419238 -.00002040  00000-0 -11015-3 0  9998,2 51464  53.2180  72.7275 0001892  64.4087 295.7100 15.08829634101091,6917.912,95.438,541.086,538.468,0.0
51464.0,STARLINK-3189,PAYLOAD,2023-11-24 16:14:23,15.08843645,0.0001446,53.2182,72.1284,100.118,259.9976,0.00014601,2.037e-05,0.0,0 STARLINK-3189,1 51464U 22010J   23328.67666426  .00002037  00000-0  14601-3 0  9993,2 51464  53.2182  72.1284 0001446 100.1180 259.9976 15.08843645101062,6917.869,95.437,540.735,538.734,0.0
51464.0,STARLINK-3189,PAYLOAD,2023-11-25 12:54:24,15.088608,0.0001269,53.217,68.2615,104.4839,255.6294,0.00075345,0.0001173,0.0,0 STARLINK-3189,1 51464U 22010J   23329.53777963  .00011730  00000-0  75345-3 0  9990,2 51464  53.2170  68.2615 0001269 104.4839 255.6294 15.08860800101242,6917.817,95.436,540.56,538.804,0.0
51464.0,STARLINK-3189,PAYLOAD,2023-11-26 11:09:47,15.08863765,0.0001477,53.2159,64.1026,58.5115,301.6021,0.00016885,2.402e-05,0.0,0 STARLINK-3189,1 51464U 22010J   23330.46513070  .00002402  00000-0  16885-3 0  9991,2 51464  53.2159  64.1026 0001477  58.5115 301.6021 15.08863765101330,6917.808,95.436,540.695,538.651,0.0
51464.0,STARLINK-3189,PAYLOAD,2023-11-26 12:45:10,15.08864175,0.000153,53.2161,63.8049,59.2099,300.9044,0.00017542,2.507e-05,0.0,0 STARLINK-3189,1 51464U 22010J   23330.53136963  .00002507  00000-0  17542-3 0  9998,2 51464  53.2161  63.8049 0001530  59.2099 300.9044 15.08864175101392,6917.806,95.436,540.73,538.613,0.0
51464.0,STARLINK-3189,PAYLOAD,2023-11-27 11:00:35,15.08831404,0.000164,53.2172,59.6335,127.4393,232.6748,-0.00045649,-7.544e-05,0.0,0 STARLINK-3189,1 51464U 22010J   23331.45874042 -.00007544  00000-0 -45649-3 0  9994,2 51464  53.2172  59.6335 0001640 127.4393 232.6748 15.08831404101483,6917.907,95.438,540.906,538.637,0.0
51464.0,STARLINK-3189,PAYLOAD,2023-11-27 12:35:58,15.08827657,0.0001418,53.217,59.3386,114.3959,245.7181,-0.00044895,-7.423e-05,0.0,0 STARLINK-3189,1 51464U 22010J   23331.52498440 -.00007423  00000-0 -44895-3 0  9994,2 51464  53.2170  59.3386 0001418 114.3959 245.7181 15.08827657101548,6917.918,95.438,540.764,538.802,0.0
51464.0,STARLINK-3189,PAYLOAD,2023-11-28 12:26:44,15.08863906,0.0001885,53.219,54.8816,58.0589,302.0586,0.00011184,1.493e-05,0.0,0 STARLINK-3189,1 51464U 22010J   23332.51856747  .00001493  00000-0  11184-3 0  9996,2 51464  53.2190  54.8816 0001885  58.0589 302.0586 15.08863906101643,6917.807,95.436,540.976,538.368,0.0
51464.0,STARLINK-3189,PAYLOAD,2023-11-29 10:42:11,15.0881883,0.0001465,53.2183,50.7162,113.0674,247.0473,0.00016085,2.271e-05,0.0,0 STARLINK-3189,1 51464U 22010J   23333.44596162  .00002271  00000-0  16085-3 0  9991,2 51464  53.2183  50.7162 0001465 113.0674 247.0473 15.08818830101789,6917.945,95.439,540.824,538.797,0.0
51464.0,STARLINK-3189,PAYLOAD,2023-11-30 10:32:56,15.08856236,0.0001514,53.2189,46.2575,90.5668,269.5498,1.2722e-06,-2.68e-06,0.0,0 STARLINK-3189,1 51464U 22010J   23334.43954519 -.00000268  00000-0  12722-5 0  9996,2 51464  53.2189  46.2575 0001514  90.5668 269.5498 15.08856236101935,6917.831,95.437,540.743,538.648,0.0
51464.0,STARLINK-3189,PAYLOAD,2023-12-01 11:59:07,15.08839321,0.0001387,53.2183,41.4997,89.3089,270.8062,0.0002059,2.99e-05,0.0,0 STARLINK-3189,1 51464U 22010J   23335.49939513  .00002990  00000-0  20590-3 0  9993,2 51464  53.2183  41.4997 0001387  89.3089 270.8062 15.08839321102091,6917.882,95.438,540.707,538.788,0.0
51464.0,STARLINK-3189,PAYLOAD,2023-12-01 23:06:48,15.08865417,0.0001356,53.2184,39.4207,102.5846,257.5298,7.6653e-05,9.33e-06,0.0,0 STARLINK-3189,1 51464U 22010J   23335.96306091  .00000933  00000-0  76653-4 0  9991,2 51464  53.2184  39.4207 0001356 102.5846 257.5298 15.08865417102164,6917.803,95.436,540.606,538.73,0.0
51464.0,STARLINK-3189,PAYLOAD,2023-12-02 11:49:52,15.08877767,0.0001624,53.2177,37.0412,101.0712,259.0463,0.00065594,0.00010177,0.0,0 STARLINK-3189,1 51464U 22010J   23336.49296867  .00010177  00000-0  65594-3 0  9991,2 51464  53.2177  37.0412 0001624 101.0712 259.0463 15.08877767102243,6917.765,95.435,540.753,538.507,0.0
51464.0,STARLINK-3189,PAYLOAD,2023-12-02 22:57:35,15.08836111,0.0001736,53.2189,34.9602,136.2591,223.8539,-0.00032002,-5.377e-05,0.0,0 STARLINK-3189,1 51464U 22010J   23336.95665915 -.00005377  00000-0 -32002-3 0  9992,2 51464  53.2189  34.9602 0001736 136.2591 223.8539 15.08836111102311,6917.892,95.438,540.958,538.556,0.0
51464.0,STARLINK-3189,PAYLOAD,2023-12-03 11:40:42,15.08802342,0.0001478,53.2174,32.5837,99.7354,260.3805,-0.00068639,-0.00011184,0.0,0 STARLINK-3189,1 51464U 22010J   23337.48660334 -.00011184  00000-0 -68639-3 0  9999,2 51464  53.2174  32.5837 0001478  99.7354 260.3805 15.08802342102391,6917.995,95.44,540.883,538.838,0.0
51464.0,STARLINK-3189,PAYLOAD,2023-12-03 13:16:05,15.08805782,0.0001427,53.2167,32.2831,112.9143,247.2,-0.00058456,-9.57e-05,0.0,0 STARLINK-3189,1 51464U 22010J   23337.55284226 -.00009570  00000-0 -58456-3 0  9991,2 51464  53.2167  32.2831 0001427 112.9143 247.2000 15.08805782102451,6917.985,95.44,540.837,538.863,0.0
51464.0,STARLINK-3189,PAYLOAD,2023-12-04 03:34:34,15.08811096,0.0001267,53.2188,29.6118,105.3203,254.7929,8.481e-06,-1.53e-06,0.0,0 STARLINK-3189,1 51464U 22010J   23338.14901340 -.00000153  00000-0  84810-5 0  9992,2 51464  53.2188  29.6118 0001267 105.3203 254.7929 15.08811096102499,6917.969,95.439,540.71,538.957,0.0
